0 FENGYUN 1C DEB
1 33727U 99025DHQ 13281.60948588  .00005701  00000-0  20298-2 0  1752
2 33727 099.7486 217.4691 0043034 220.4288 139.5622 14.34217091311338
0 FENGYUN 1C DEB
1 33727U 99025DHQ 13283.63256673  .00005367  00000-0  19110-2 0  1764
2 33727 099.7538 219.7627 0043365 207.2014 152.6198 14.34234021311625
0 FENGYUN 1C DEB
1 33727U 99025DHQ 13287.05084651  .00005835  00000-0  20725-2 0  1796
2 33727 099.7434 223.5776 0044673 212.2871 147.6329 14.34285671312110
0 FENGYUN 1C DEB
1 33727U 99025DHQ 13290.05047405  .00006079  00000-0  21578-2 0  1806
2 33727 099.7438 226.9599 0043320 206.4011 153.6635 14.34328685312540
0 FENGYUN 1C DEB
1 33727U 99025DHQ 13291.02704798  .00006196  00000-0  21989-2 0  1816
2 33727 099.7418 228.0487 0042737 204.0173 155.9937 14.34344613312685
0 FENGYUN 1C DEB
1 33727U 99025DHQ 13295.07287204  .00008508  00000-0  30082-2 0  1827
2 33727 099.7280 232.5876 0040593 187.1876 173.5023 14.34439935313262
